{"fetched_at":"2026-07-17T06:38:05.292Z","source":"https://celestrak.org/NORAD/elements/gp.php?NAME=BRO&FORMAT=JSON","constellation":"unseenlabs","records":[{"OBJECT_NAME":"BRO-1","OBJECT_ID":"2019-054A","EPOCH":"2026-07-16T18:32:46.070880","CLASSIFICATION_TYPE":"U","MEAN_MOTION":16.24407258,"ECCENTRICITY":0.0011282,"INCLINATION":44.9772,"RA_OF_ASC_NODE":108.943,"ARG_OF_PERICENTER":222.8639,"MEAN_ANOMALY":137.1402,"EPHEMERIS_TYPE":0,"NORAD_CAT_ID":44495,"ELEMENT_SET_NO":999,"REV_AT_EPOCH":38448,"BSTAR":0.00076736,"MEAN_MOTION_DOT":0.02249163,"MEAN_MOTION_DDOT":0.000010146},{"OBJECT_NAME":"BRO-5","OBJECT_ID":"2022-002CF","EPOCH":"2026-07-16T20:28:52.127904","CLASSIFICATION_TYPE":"U","MEAN_MOTION":15.4894442,"ECCENTRICITY":0.0005569,"INCLINATION":97.2983,"RA_OF_ASC_NODE":271.8169,"ARG_OF_PERICENTER":197.301,"MEAN_ANOMALY":162.8052,"EPHEMERIS_TYPE":0,"NORAD_CAT_ID":51061,"ELEMENT_SET_NO":999,"REV_AT_EPOCH":25084,"BSTAR":0.00034158,"MEAN_MOTION_DOT":0.00018382,"MEAN_MOTION_DDOT":0},{"OBJECT_NAME":"BRO-6","OBJECT_ID":"2022-047AE","EPOCH":"2026-07-16T19:17:35.136096","CLASSIFICATION_TYPE":"U","MEAN_MOTION":15.52655716,"ECCENTRICITY":0.0002778,"INCLINATION":97.3389,"RA_OF_ASC_NODE":289.4719,"ARG_OF_PERICENTER":300.7382,"MEAN_ANOMALY":59.3597,"EPHEMERIS_TYPE":0,"NORAD_CAT_ID":52422,"ELEMENT_SET_NO":999,"REV_AT_EPOCH":23574,"BSTAR":0.00045301,"MEAN_MOTION_DOT":0.00027861,"MEAN_MOTION_DDOT":0},{"OBJECT_NAME":"BRO-8","OBJECT_ID":"2023-001C","EPOCH":"2026-07-16T19:26:40.485120","CLASSIFICATION_TYPE":"U","MEAN_MOTION":15.50817815,"ECCENTRICITY":0.000469,"INCLINATION":97.3182,"RA_OF_ASC_NODE":263.4563,"ARG_OF_PERICENTER":34.4331,"MEAN_ANOMALY":325.7224,"EPHEMERIS_TYPE":0,"NORAD_CAT_ID":55011,"ELEMENT_SET_NO":999,"REV_AT_EPOCH":19679,"BSTAR":0.00035626,"MEAN_MOTION_DOT":0.00020486,"MEAN_MOTION_DDOT":0},{"OBJECT_NAME":"BRO-11","OBJECT_ID":"2023-174J","EPOCH":"2026-07-16T20:34:31.272096","CLASSIFICATION_TYPE":"U","MEAN_MOTION":15.27600057,"ECCENTRICITY":0.0012028,"INCLINATION":97.3896,"RA_OF_ASC_NODE":274.4321,"ARG_OF_PERICENTER":102.5871,"MEAN_ANOMALY":257.6714,"EPHEMERIS_TYPE":0,"NORAD_CAT_ID":58264,"ELEMENT_SET_NO":999,"REV_AT_EPOCH":14928,"BSTAR":0.00010137,"MEAN_MOTION_DOT":0.00002666,"MEAN_MOTION_DDOT":0},{"OBJECT_NAME":"BRO-13","OBJECT_ID":"2024-043K","EPOCH":"2026-07-16T20:15:53.468640","CLASSIFICATION_TYPE":"U","MEAN_MOTION":14.96654378,"ECCENTRICITY":0.0007388,"INCLINATION":97.853,"RA_OF_ASC_NODE":328.9631,"ARG_OF_PERICENTER":255.5591,"MEAN_ANOMALY":104.481,"EPHEMERIS_TYPE":0,"NORAD_CAT_ID":59107,"ELEMENT_SET_NO":999,"REV_AT_EPOCH":12905,"BSTAR":0.000096231,"MEAN_MOTION_DOT":0.00001038,"MEAN_MOTION_DDOT":0},{"OBJECT_NAME":"BRO-12","OBJECT_ID":"2024-043L","EPOCH":"2026-07-16T20:03:19.950048","CLASSIFICATION_TYPE":"U","MEAN_MOTION":14.96895425,"ECCENTRICITY":0.0007022,"INCLINATION":97.8511,"RA_OF_ASC_NODE":329.1237,"ARG_OF_PERICENTER":249.096,"MEAN_ANOMALY":110.951,"EPHEMERIS_TYPE":0,"NORAD_CAT_ID":59108,"ELEMENT_SET_NO":999,"REV_AT_EPOCH":12907,"BSTAR":0.000065813,"MEAN_MOTION_DOT":0.00000696,"MEAN_MOTION_DDOT":0},{"OBJECT_NAME":"BRO-14","OBJECT_ID":"2024-149CM","EPOCH":"2026-07-16T14:54:34.124256","CLASSIFICATION_TYPE":"U","MEAN_MOTION":14.96238679,"ECCENTRICITY":0.0006617,"INCLINATION":97.6864,"RA_OF_ASC_NODE":272.8696,"ARG_OF_PERICENTER":14.0065,"MEAN_ANOMALY":346.1339,"EPHEMERIS_TYPE":0,"NORAD_CAT_ID":60551,"ELEMENT_SET_NO":999,"REV_AT_EPOCH":10439,"BSTAR":0.000093054,"MEAN_MOTION_DOT":0.00000993,"MEAN_MOTION_DDOT":0},{"OBJECT_NAME":"BRO-15","OBJECT_ID":"2024-149CP","EPOCH":"2026-07-16T16:05:57.486336","CLASSIFICATION_TYPE":"U","MEAN_MOTION":14.96222533,"ECCENTRICITY":0.0007621,"INCLINATION":97.679,"RA_OF_ASC_NODE":272.4926,"ARG_OF_PERICENTER":359.7537,"MEAN_ANOMALY":0.368,"EPHEMERIS_TYPE":0,"NORAD_CAT_ID":60553,"ELEMENT_SET_NO":999,"REV_AT_EPOCH":10441,"BSTAR":0.000036101,"MEAN_MOTION_DOT":0.0000035,"MEAN_MOTION_DDOT":0},{"OBJECT_NAME":"BRO-16","OBJECT_ID":"2025-009AX","EPOCH":"2026-07-16T16:33:49.582080","CLASSIFICATION_TYPE":"U","MEAN_MOTION":15.24134524,"ECCENTRICITY":0.0002313,"INCLINATION":97.4055,"RA_OF_ASC_NODE":277.8136,"ARG_OF_PERICENTER":151.4037,"MEAN_ANOMALY":208.7327,"EPHEMERIS_TYPE":0,"NORAD_CAT_ID":62654,"ELEMENT_SET_NO":999,"REV_AT_EPOCH":8329,"BSTAR":0.000082279,"MEAN_MOTION_DOT":0.0000193,"MEAN_MOTION_DDOT":0},{"OBJECT_NAME":"BRO-18","OBJECT_ID":"2025-135Y","EPOCH":"2026-07-16T20:02:25.431648","CLASSIFICATION_TYPE":"U","MEAN_MOTION":15.22179374,"ECCENTRICITY":0.0002507,"INCLINATION":97.4654,"RA_OF_ASC_NODE":312.641,"ARG_OF_PERICENTER":113.2615,"MEAN_ANOMALY":246.8885,"EPHEMERIS_TYPE":0,"NORAD_CAT_ID":64550,"ELEMENT_SET_NO":999,"REV_AT_EPOCH":5938,"BSTAR":0.000089342,"MEAN_MOTION_DOT":0.0000198,"MEAN_MOTION_DDOT":0},{"OBJECT_NAME":"BRO-17","OBJECT_ID":"2025-276G","EPOCH":"2026-07-16T15:30:28.766592","CLASSIFICATION_TYPE":"U","MEAN_MOTION":15.1816379,"ECCENTRICITY":0.0005152,"INCLINATION":97.4181,"RA_OF_ASC_NODE":270.186,"ARG_OF_PERICENTER":252.9872,"MEAN_ANOMALY":107.0797,"EPHEMERIS_TYPE":0,"NORAD_CAT_ID":66672,"ELEMENT_SET_NO":999,"REV_AT_EPOCH":3486,"BSTAR":0.000086848,"MEAN_MOTION_DOT":0.00001707,"MEAN_MOTION_DDOT":0},{"OBJECT_NAME":"BRO-20","OBJECT_ID":"2025-276J","EPOCH":"2026-07-16T03:51:24.220800","CLASSIFICATION_TYPE":"U","MEAN_MOTION":15.18328205,"ECCENTRICITY":0.00047778,"INCLINATION":97.4161,"RA_OF_ASC_NODE":269.6978,"ARG_OF_PERICENTER":258.6257,"MEAN_ANOMALY":101.4441,"EPHEMERIS_TYPE":0,"NORAD_CAT_ID":66674,"ELEMENT_SET_NO":999,"REV_AT_EPOCH":3479,"BSTAR":0.000075562583,"MEAN_MOTION_DOT":0.00001484,"MEAN_MOTION_DDOT":0},{"OBJECT_NAME":"BRO-19","OBJECT_ID":"2026-067G","EPOCH":"2026-07-16T19:50:15.186624","CLASSIFICATION_TYPE":"U","MEAN_MOTION":15.18994284,"ECCENTRICITY":0.0002617,"INCLINATION":97.4493,"RA_OF_ASC_NODE":155.863,"ARG_OF_PERICENTER":105.4714,"MEAN_ANOMALY":254.6809,"EPHEMERIS_TYPE":0,"NORAD_CAT_ID":68422,"ELEMENT_SET_NO":999,"REV_AT_EPOCH":1644,"BSTAR":0.00009801,"MEAN_MOTION_DOT":0.00001982,"MEAN_MOTION_DDOT":0},{"OBJECT_NAME":"BRO-21","OBJECT_ID":"2026-100AD","EPOCH":"2026-07-16T15:41:06.336384","CLASSIFICATION_TYPE":"U","MEAN_MOTION":15.21637501,"ECCENTRICITY":0.0006559,"INCLINATION":97.4006,"RA_OF_ASC_NODE":95.0644,"ARG_OF_PERICENTER":323.9876,"MEAN_ANOMALY":36.0918,"EPHEMERIS_TYPE":0,"NORAD_CAT_ID":69007,"ELEMENT_SET_NO":999,"REV_AT_EPOCH":1128,"BSTAR":0.00017677,"MEAN_MOTION_DOT":0.00003926,"MEAN_MOTION_DDOT":0},{"OBJECT_NAME":"BRO-22","OBJECT_ID":"2026-132C","EPOCH":"2026-07-16T15:24:36.193248","CLASSIFICATION_TYPE":"U","MEAN_MOTION":14.99811231,"ECCENTRICITY":0.0016712,"INCLINATION":97.6826,"RA_OF_ASC_NODE":260.944,"ARG_OF_PERICENTER":175.491,"MEAN_ANOMALY":184.6467,"EPHEMERIS_TYPE":0,"NORAD_CAT_ID":69504,"ELEMENT_SET_NO":999,"REV_AT_EPOCH":519,"BSTAR":0.00011587,"MEAN_MOTION_DOT":0.00001378,"MEAN_MOTION_DDOT":0}]}
