BRO-1                   
1 44495U 19054A   26197.77275545  .02249163  10146-4  76736-3 0  9997
2 44495  44.9772 108.9430 0011282 222.8639 137.1402 16.24407258384486
BRO-5                   
1 51061U 22002CF  26197.85338111  .00018382  00000+0  34158-3 0  9999
2 51061  97.2983 271.8169 0005569 197.3010 162.8052 15.48944420250847
BRO-6                   
1 52422U 22047AE  26197.80387889  .00027861  00000+0  45301-3 0  9995
2 52422  97.3389 289.4719 0002778 300.7382  59.3597 15.52655716235745
BRO-8                   
1 55011U 23001C   26197.81019080  .00020486  00000+0  35626-3 0  9994
2 55011  97.3182 263.4563 0004690  34.4331 325.7224 15.50817815196798
BRO-11                  
1 58264U 23174J   26197.85730639  .00002666  00000+0  10137-3 0  9992
2 58264  97.3896 274.4321 0012028 102.5871 257.6714 15.27600057149288
BRO-13                  
1 59107U 24043K   26197.84436885  .00001038  00000+0  96231-4 0  9992
2 59107  97.8530 328.9631 0007388 255.5591 104.4810 14.96654378129054
BRO-12                  
1 59108U 24043L   26197.83564757  .00000696  00000+0  65813-4 0  9993
2 59108  97.8511 329.1237 0007022 249.0960 110.9510 14.96895425129073
BRO-14                  
1 60551U 24149CM  26197.62122829  .00000993  00000+0  93054-4 0  9999
2 60551  97.6864 272.8696 0006617  14.0065 346.1339 14.96238679104396
BRO-15                  
1 60553U 24149CP  26197.67080424  .00000350  00000+0  36101-4 0  9997
2 60553  97.6790 272.4926 0007621 359.7537   0.3680 14.96222533104410
BRO-16                  
1 62654U 25009AX  26197.69015720  .00001930  00000+0  82279-4 0  9998
2 62654  97.4055 277.8136 0002313 151.4037 208.7327 15.24134524 83291
BRO-18                  
1 64550U 25135Y   26197.83501657  .00001980  00000+0  89342-4 0  9993
2 64550  97.4654 312.6410 0002507 113.2615 246.8885 15.22179374 59384
BRO-17                  
1 66672U 25276G   26197.64616628  .00001707  00000+0  86848-4 0  9995
2 66672  97.4181 270.1860 0005152 252.9872 107.0797 15.18163790 34864
BRO-20                  
1 66674U 25276J   26197.16069700  .00001484  00000+0  75563-4 0  9991
2 66674  97.4161 269.6978 0004777 258.6257 101.4441 15.18328205 34799
BRO-19                  
1 68422U 26067G   26197.82656466  .00001982  00000+0  98010-4 0  9992
2 68422  97.4493 155.8630 0002617 105.4714 254.6809 15.18994284 16446
BRO-21                  
1 69007U 26100AD  26197.65354556  .00003926  00000+0  17677-3 0  9995
2 69007  97.4006  95.0644 0006559 323.9876  36.0918 15.21637501 11281
BRO-22                  
1 69504U 26132C   26197.64208557  .00001378  00000+0  11587-3 0  9993
2 69504  97.6826 260.9440 0016712 175.4910 184.6467 14.99811231  5193
